STARLINK-31275          
1 59197U 24045V   26050.80657382  .00000978  00000+0  45053-4 0  9992
2 59197  43.0011 193.7712 0001345 265.0959  94.9739 15.27577922110427
STARLINK-31590          
1 59198U 24045W   26050.81428002 -.00000359  00000+0 -35106-5 0  9993
2 59198  43.0044 193.8271 0001918 266.9593  93.1039 15.27573132110428
STARLINK-31567          
1 59199U 24045X   26050.77702034  .00000407  00000+0  24312-4 0  9997
2 59199  43.0042 193.5541 0001438 266.5230  93.5457 15.27577284110425
STARLINK-31503          
1 59200U 24045Y   26050.78087412  .00000772  00000+0  37573-4 0  9995
2 59200  43.0009 193.5788 0001063 237.7788 122.2961 15.27577480110424
STARLINK-31603          
1 59201U 24046A   26050.78058847  .00000664  00000+0  34537-4 0  9994
2 59201  53.1575 238.8090 0001106  78.9985 281.1141 15.30189419110303
STARLINK-31602          
1 59202U 24046B   26050.87429317  .00000410  00000+0  25970-4 0  9999
2 59202  53.1600 237.9645 0001249 100.0937 260.0205 15.30189331110323
STARLINK-31577          
1 59203U 24046C   26050.91670139  .00048574  00000+0  16431-2 0  9998
2 59203  53.1581 237.5209 0001250  80.9478 280.9388 15.30168143  5753
STARLINK-31522          
1 59204U 24046D   26050.77847810  .00000325  00000+0  23108-4 0  9998
2 59204  53.1584 238.7952 0001055  85.7849 274.3272 15.30187179110300
STARLINK-31586          
1 59205U 24046E   26050.88377825  .00000432  00000+0  26706-4 0  9991
2 59205  53.1583 238.0251 0001028 108.0870 252.0243 15.30195125110321
STARLINK-31247          
1 59206U 24046F   26050.83218636  .00000291  00000+0  21956-4 0  9996
2 59206  53.1589 238.4125 0000822  85.1793 274.9302 15.30185185110315
STARLINK-31591          
1 59207U 24046G   26050.87639223  .00000017  00000+0  12683-4 0  9993
2 59207  53.1588 237.9809 0001069 100.3693 259.7428 15.30195802110329
STARLINK-31576          
1 59208U 24046H   26050.86794764  .00003218  00000+0  12073-3 0  9993
2 59208  53.1581 237.9252 0001276  98.6666 261.4480 15.30200342110328
STARLINK-31601          
1 59209U 24046J   26050.92270792  .00005802  00000+0  20790-3 0  9997
2 59209  53.1600 237.5574 0001027 102.5198 257.5917 15.30195892110338
STARLINK-31520          
1 59210U 24046K   26050.82901792  .00000189  00000+0  18512-4 0  9992
2 59210  53.1584 238.3937 0001191  89.7606 270.3532 15.30189202110317
STARLINK-31496          
1 59211U 24046L   26050.89483247  .00001430  00000+0  60382-4 0  9992
2 59211  53.1604 225.3191 0001140  85.2684 274.8447 15.30198755110496
STARLINK-31492          
1 59212U 24046M   26050.78269628  .00000486  00000+0  28535-4 0  9990
2 59212  53.1588 238.8112 0001434  90.9374 269.1792 15.30194206110290
