[{"OBJECT_NAME":"STARLINK-31275","OBJECT_ID":"2024-045V","EPOCH":"2026-02-19T19:21:27.978048","MEAN_MOTION":15.27577922,"ECCENTRICITY":0.00013455,"INCLINATION":43.0011,"RA_OF_ASC_NODE":193.7712,"ARG_OF_PERICENTER":265.0959,"MEAN_ANOMALY":94.9739,"EPHEMERIS_TYPE":0,"CLASSIFICATION_TYPE":"U","NORAD_CAT_ID":59197,"ELEMENT_SET_NO":999,"REV_AT_EPOCH":11042,"BSTAR":4.5052755e-5,"MEAN_MOTION_DOT":9.78e-6,"MEAN_MOTION_DDOT":0},{"OBJECT_NAME":"STARLINK-31590","OBJECT_ID":"2024-045W","EPOCH":"2026-02-19T19:32:33.793728","MEAN_MOTION":15.27573132,"ECCENTRICITY":0.00019186,"INCLINATION":43.0044,"RA_OF_ASC_NODE":193.8271,"ARG_OF_PERICENTER":266.9593,"MEAN_ANOMALY":93.1039,"EPHEMERIS_TYPE":0,"CLASSIFICATION_TYPE":"U","NORAD_CAT_ID":59198,"ELEMENT_SET_NO":999,"REV_AT_EPOCH":11042,"BSTAR":-3.510645e-6,"MEAN_MOTION_DOT":-3.59e-6,"MEAN_MOTION_DDOT":0},{"OBJECT_NAME":"STARLINK-31567","OBJECT_ID":"2024-045X","EPOCH":"2026-02-19T18:38:54.557376","MEAN_MOTION":15.27577284,"ECCENTRICITY":0.00014386,"INCLINATION":43.0042,"RA_OF_ASC_NODE":193.5541,"ARG_OF_PERICENTER":266.523,"MEAN_ANOMALY":93.5457,"EPHEMERIS_TYPE":0,"CLASSIFICATION_TYPE":"U","NORAD_CAT_ID":59199,"ELEMENT_SET_NO":999,"REV_AT_EPOCH":11042,"BSTAR":2.4312445e-5,"MEAN_MOTION_DOT":4.07e-6,"MEAN_MOTION_DDOT":0},{"OBJECT_NAME":"STARLINK-31503","OBJECT_ID":"2024-045Y","EPOCH":"2026-02-19T18:44:27.523968","MEAN_MOTION":15.2757748,"ECCENTRICITY":0.00010636,"INCLINATION":43.0009,"RA_OF_ASC_NODE":193.5788,"ARG_OF_PERICENTER":237.7788,"MEAN_ANOMALY":122.2961,"EPHEMERIS_TYPE":0,"CLASSIFICATION_TYPE":"U","NORAD_CAT_ID":59200,"ELEMENT_SET_NO":999,"REV_AT_EPOCH":11042,"BSTAR":3.7573437e-5,"MEAN_MOTION_DOT":7.72e-6,"MEAN_MOTION_DDOT":0},{"OBJECT_NAME":"STARLINK-31603","OBJECT_ID":"2024-046A","EPOCH":"2026-02-19T18:44:02.843808","MEAN_MOTION":15.30189419,"ECCENTRICITY":0.00011067,"INCLINATION":53.1575,"RA_OF_ASC_NODE":238.809,"ARG_OF_PERICENTER":78.9985,"MEAN_ANOMALY":281.1141,"EPHEMERIS_TYPE":0,"CLASSIFICATION_TYPE":"U","NORAD_CAT_ID":59201,"ELEMENT_SET_NO":999,"REV_AT_EPOCH":11030,"BSTAR":3.4536899e-5,"MEAN_MOTION_DOT":6.64e-6,"MEAN_MOTION_DDOT":0},{"OBJECT_NAME":"STARLINK-31602","OBJECT_ID":"2024-046B","EPOCH":"2026-02-19T20:58:58.929888","MEAN_MOTION":15.30189331,"ECCENTRICITY":0.00012495,"INCLINATION":53.16,"RA_OF_ASC_NODE":237.9645,"ARG_OF_PERICENTER":100.0937,"MEAN_ANOMALY":260.0205,"EPHEMERIS_TYPE":0,"CLASSIFICATION_TYPE":"U","NORAD_CAT_ID":59202,"ELEMENT_SET_NO":999,"REV_AT_EPOCH":11032,"BSTAR":2.5970058e-5,"MEAN_MOTION_DOT":4.1e-6,"MEAN_MOTION_DDOT":0},{"OBJECT_NAME":"STARLINK-31577","OBJECT_ID":"2024-046C","EPOCH":"2026-02-19T22:00:03.000096","MEAN_MOTION":15.30168143,"ECCENTRICITY":0.00012508,"INCLINATION":53.1581,"RA_OF_ASC_NODE":237.5209,"ARG_OF_PERICENTER":80.9478,"MEAN_ANOMALY":280.9388,"EPHEMERIS_TYPE":0,"CLASSIFICATION_TYPE":"U","NORAD_CAT_ID":59203,"ELEMENT_SET_NO":999,"REV_AT_EPOCH":575,"BSTAR":0.0016430533,"MEAN_MOTION_DOT":0.00048574,"MEAN_MOTION_DDOT":0},{"OBJECT_NAME":"STARLINK-31522","OBJECT_ID":"2024-046D","EPOCH":"2026-02-19T18:41:00.507840","MEAN_MOTION":15.30187179,"ECCENTRICITY":0.00010552,"INCLINATION":53.1584,"RA_OF_ASC_NODE":238.7952,"ARG_OF_PERICENTER":85.7849,"MEAN_ANOMALY":274.3272,"EPHEMERIS_TYPE":0,"CLASSIFICATION_TYPE":"U","NORAD_CAT_ID":59204,"ELEMENT_SET_NO":999,"REV_AT_EPOCH":11030,"BSTAR":2.3108224e-5,"MEAN_MOTION_DOT":3.25e-6,"MEAN_MOTION_DDOT":0},{"OBJECT_NAME":"STARLINK-31586","OBJECT_ID":"2024-046E","EPOCH":"2026-02-19T21:12:38.440800","MEAN_MOTION":15.30195125,"ECCENTRICITY":0.0001028,"INCLINATION":53.1583,"RA_OF_ASC_NODE":238.0251,"ARG_OF_PERICENTER":108.087,"MEAN_ANOMALY":252.0243,"EPHEMERIS_TYPE":0,"CLASSIFICATION_TYPE":"U","NORAD_CAT_ID":59205,"ELEMENT_SET_NO":999,"REV_AT_EPOCH":11032,"BSTAR":2.6706266e-5,"MEAN_MOTION_DOT":4.32e-6,"MEAN_MOTION_DDOT":0},{"OBJECT_NAME":"STARLINK-31247","OBJECT_ID":"2024-046F","EPOCH":"2026-02-19T19:58:20.901504","MEAN_MOTION":15.30185185,"ECCENTRICITY":8.223e-5,"INCLINATION":53.1589,"RA_OF_ASC_NODE":238.4125,"ARG_OF_PERICENTER":85.1793,"MEAN_ANOMALY":274.9302,"EPHEMERIS_TYPE":0,"CLASSIFICATION_TYPE":"U","NORAD_CAT_ID":59206,"ELEMENT_SET_NO":999,"REV_AT_EPOCH":11031,"BSTAR":2.195585e-5,"MEAN_MOTION_DOT":2.91e-6,"MEAN_MOTION_DDOT":0},{"OBJECT_NAME":"STARLINK-31591","OBJECT_ID":"2024-046G","EPOCH":"2026-02-19T21:02:00.288672","MEAN_MOTION":15.30195802,"ECCENTRICITY":0.00010699,"INCLINATION":53.1588,"RA_OF_ASC_NODE":237.9809,"ARG_OF_PERICENTER":100.3693,"MEAN_ANOMALY":259.7428,"EPHEMERIS_TYPE":0,"CLASSIFICATION_TYPE":"U","NORAD_CAT_ID":59207,"ELEMENT_SET_NO":999,"REV_AT_EPOCH":11032,"BSTAR":1.2682743e-5,"MEAN_MOTION_DOT":1.7e-7,"MEAN_MOTION_DDOT":0},{"OBJECT_NAME":"STARLINK-31576","OBJECT_ID":"2024-046H","EPOCH":"2026-02-19T20:49:50.676096","MEAN_MOTION":15.30200342,"ECCENTRICITY":0.00012766,"INCLINATION":53.1581,"RA_OF_ASC_NODE":237.9252,"ARG_OF_PERICENTER":98.6666,"MEAN_ANOMALY":261.448,"EPHEMERIS_TYPE":0,"CLASSIFICATION_TYPE":"U","NORAD_CAT_ID":59208,"ELEMENT_SET_NO":999,"REV_AT_EPOCH":11032,"BSTAR":0.00012073494,"MEAN_MOTION_DOT":3.218e-5,"MEAN_MOTION_DDOT":0},{"OBJECT_NAME":"STARLINK-31601","OBJECT_ID":"2024-046J","EPOCH":"2026-02-19T22:08:41.964288","MEAN_MOTION":15.30195892,"ECCENTRICITY":0.00010277,"INCLINATION":53.16,"RA_OF_ASC_NODE":237.5574,"ARG_OF_PERICENTER":102.5198,"MEAN_ANOMALY":257.5917,"EPHEMERIS_TYPE":0,"CLASSIFICATION_TYPE":"U","NORAD_CAT_ID":59209,"ELEMENT_SET_NO":999,"REV_AT_EPOCH":11033,"BSTAR":0.00020790271,"MEAN_MOTION_DOT":5.802e-5,"MEAN_MOTION_DDOT":0},{"OBJECT_NAME":"STARLINK-31520","OBJECT_ID":"2024-046K","EPOCH":"2026-02-19T19:53:47.148288","MEAN_MOTION":15.30189202,"ECCENTRICITY":0.00011914,"INCLINATION":53.1584,"RA_OF_ASC_NODE":238.3937,"ARG_OF_PERICENTER":89.7606,"MEAN_ANOMALY":270.3532,"EPHEMERIS_TYPE":0,"CLASSIFICATION_TYPE":"U","NORAD_CAT_ID":59210,"ELEMENT_SET_NO":999,"REV_AT_EPOCH":11031,"BSTAR":1.8511819e-5,"MEAN_MOTION_DOT":1.89e-6,"MEAN_MOTION_DDOT":0},{"OBJECT_NAME":"STARLINK-31496","OBJECT_ID":"2024-046L","EPOCH":"2026-02-19T21:28:33.525408","MEAN_MOTION":15.30198755,"ECCENTRICITY":0.00011407,"INCLINATION":53.1604,"RA_OF_ASC_NODE":225.3191,"ARG_OF_PERICENTER":85.2684,"MEAN_ANOMALY":274.8447,"EPHEMERIS_TYPE":0,"CLASSIFICATION_TYPE":"U","NORAD_CAT_ID":59211,"ELEMENT_SET_NO":999,"REV_AT_EPOCH":11049,"BSTAR":6.0382251e-5,"MEAN_MOTION_DOT":1.43e-5,"MEAN_MOTION_DDOT":0},{"OBJECT_NAME":"STARLINK-31492","OBJECT_ID":"2024-046M","EPOCH":"2026-02-19T18:47:04.958592","MEAN_MOTION":15.30194206,"ECCENTRICITY":0.00014348,"INCLINATION":53.1588,"RA_OF_ASC_NODE":238.8112,"ARG_OF_PERICENTER":90.9374,"MEAN_ANOMALY":269.1792,"EPHEMERIS_TYPE":0,"CLASSIFICATION_TYPE":"U","NORAD_CAT_ID":59212,"ELEMENT_SET_NO":999,"REV_AT_EPOCH":11029,"BSTAR":2.8534867e-5,"MEAN_MOTION_DOT":4.86e-6,"MEAN_MOTION_DDOT":0}]
